<?xml version="1.0" encoding="UTF-8"?>
<ndm xmlns:xsi="http://www.w3.org/2001/XMLSchema-instance" xsi:noNamespaceSchemaLocation="https://sanaregistry.org/r/ndmxml_unqualified/ndmxml-2.0.0-master-2.0.xsd">
<omm id="CCSDS_OMM_VERS" version="2.0">
<header><CREATION_DATE/><ORIGINATOR/></header><body><segment><metadata><OBJECT_NAME>ONEWEB-0046</OBJECT_NAME><OBJECT_ID>2020-020Z</OBJECT_ID><CENTER_NAME>EARTH</CENTER_NAME><REF_FRAME>TEME</REF_FRAME><TIME_SYSTEM>UTC</TIME_SYSTEM><MEAN_ELEMENT_THEORY>SGP4</MEAN_ELEMENT_THEORY></metadata><data><meanElements><EPOCH>2023-10-10T21:12:39.596832</EPOCH><MEAN_MOTION>13.11413249</MEAN_MOTION><ECCENTRICITY>.0001979</ECCENTRICITY><INCLINATION>87.8979</INCLINATION><RA_OF_ASC_NODE>215.8011</RA_OF_ASC_NODE><ARG_OF_PERICENTER>86.3242</ARG_OF_PERICENTER><MEAN_ANOMALY>273.8112</MEAN_ANOMALY></meanElements><tleParameters><EPHEMERIS_TYPE>0</EPHEMERIS_TYPE><CLASSIFICATION_TYPE>U</CLASSIFICATION_TYPE><NORAD_CAT_ID>45447</NORAD_CAT_ID><ELEMENT_SET_NO>999</ELEMENT_SET_NO><REV_AT_EPOCH>17413</REV_AT_EPOCH><BSTAR>.15012E-2</BSTAR><MEAN_MOTION_DOT>.545E-5</MEAN_MOTION_DOT><MEAN_MOTION_DDOT>0</MEAN_MOTION_DDOT></tleParameters></data></segment></body></omm>
<omm id="CCSDS_OMM_VERS" version="2.0">
<header><CREATION_DATE/><ORIGINATOR/></header><body><segment><metadata><OBJECT_NAME>ONEWEB-0063</OBJECT_NAME><OBJECT_ID>2020-020AA</OBJECT_ID><CENTER_NAME>EARTH</CENTER_NAME><REF_FRAME>TEME</REF_FRAME><TIME_SYSTEM>UTC</TIME_SYSTEM><MEAN_ELEMENT_THEORY>SGP4</MEAN_ELEMENT_THEORY></metadata><data><meanElements><EPOCH>2023-10-11T08:53:57.081984</EPOCH><MEAN_MOTION>13.11416662</MEAN_MOTION><ECCENTRICITY>.0001841</ECCENTRICITY><INCLINATION>87.8990</INCLINATION><RA_OF_ASC_NODE>215.7019</RA_OF_ASC_NODE><ARG_OF_PERICENTER>85.7850</ARG_OF_PERICENTER><MEAN_ANOMALY>274.3488</MEAN_ANOMALY></meanElements><tleParameters><EPHEMERIS_TYPE>0</EPHEMERIS_TYPE><CLASSIFICATION_TYPE>U</CLASSIFICATION_TYPE><NORAD_CAT_ID>45448</NORAD_CAT_ID><ELEMENT_SET_NO>999</ELEMENT_SET_NO><REV_AT_EPOCH>17427</REV_AT_EPOCH><BSTAR>.68847E-3</BSTAR><MEAN_MOTION_DOT>.257E-5</MEAN_MOTION_DOT><MEAN_MOTION_DDOT>0</MEAN_MOTION_DDOT></tleParameters></data></segment></body></omm>
<omm id="CCSDS_OMM_VERS" version="2.0">
<header><CREATION_DATE/><ORIGINATOR/></header><body><segment><metadata><OBJECT_NAME>ONEWEB-0019</OBJECT_NAME><OBJECT_ID>2020-020AB</OBJECT_ID><CENTER_NAME>EARTH</CENTER_NAME><REF_FRAME>TEME</REF_FRAME><TIME_SYSTEM>UTC</TIME_SYSTEM><MEAN_ELEMENT_THEORY>SGP4</MEAN_ELEMENT_THEORY></metadata><data><meanElements><EPOCH>2023-10-11T08:16:31.371456</EPOCH><MEAN_MOTION>13.11414562</MEAN_MOTION><ECCENTRICITY>.000173</ECCENTRICITY><INCLINATION>87.8983</INCLINATION><RA_OF_ASC_NODE>215.7060</RA_OF_ASC_NODE><ARG_OF_PERICENTER>74.5112</ARG_OF_PERICENTER><MEAN_ANOMALY>285.6207</MEAN_ANOMALY></meanElements><tleParameters><EPHEMERIS_TYPE>0</EPHEMERIS_TYPE><CLASSIFICATION_TYPE>U</CLASSIFICATION_TYPE><NORAD_CAT_ID>45449</NORAD_CAT_ID><ELEMENT_SET_NO>999</ELEMENT_SET_NO><REV_AT_EPOCH>17412</REV_AT_EPOCH><BSTAR>.17389E-2</BSTAR><MEAN_MOTION_DOT>.629E-5</MEAN_MOTION_DOT><MEAN_MOTION_DDOT>0</MEAN_MOTION_DDOT></tleParameters></data></segment></body></omm>
<omm id="CCSDS_OMM_VERS" version="2.0">
<header><CREATION_DATE/><ORIGINATOR/></header><body><segment><metadata><OBJECT_NAME>ONEWEB-0094</OBJECT_NAME><OBJECT_ID>2020-020AC</OBJECT_ID><CENTER_NAME>EARTH</CENTER_NAME><REF_FRAME>TEME</REF_FRAME><TIME_SYSTEM>UTC</TIME_SYSTEM><MEAN_ELEMENT_THEORY>SGP4</MEAN_ELEMENT_THEORY></metadata><data><meanElements><EPOCH>2023-10-10T19:36:02.238048</EPOCH><MEAN_MOTION>13.17653393</MEAN_MOTION><ECCENTRICITY>.000196</ECCENTRICITY><INCLINATION>87.9197</INCLINATION><RA_OF_ASC_NODE>200.7160</RA_OF_ASC_NODE><ARG_OF_PERICENTER>74.2580</ARG_OF_PERICENTER><MEAN_ANOMALY>285.8767</MEAN_ANOMALY></meanElements><tleParameters><EPHEMERIS_TYPE>0</EPHEMERIS_TYPE><CLASSIFICATION_TYPE>U</CLASSIFICATION_TYPE><NORAD_CAT_ID>45450</NORAD_CAT_ID><ELEMENT_SET_NO>999</ELEMENT_SET_NO><REV_AT_EPOCH>17720</REV_AT_EPOCH><BSTAR>.54469E-4</BSTAR><MEAN_MOTION_DOT>.34E-6</MEAN_MOTION_DOT><MEAN_MOTION_DDOT>0</MEAN_MOTION_DDOT></tleParameters></data></segment></body></omm>
<omm id="CCSDS_OMM_VERS" version="2.0">
<header><CREATION_DATE/><ORIGINATOR/></header><body><segment><metadata><OBJECT_NAME>ONEWEB-0087</OBJECT_NAME><OBJECT_ID>2020-020AD</OBJECT_ID><CENTER_NAME>EARTH</CENTER_NAME><REF_FRAME>TEME</REF_FRAME><TIME_SYSTEM>UTC</TIME_SYSTEM><MEAN_ELEMENT_THEORY>SGP4</MEAN_ELEMENT_THEORY></metadata><data><meanElements><EPOCH>2023-10-11T09:03:18.081504</EPOCH><MEAN_MOTION>13.11412305</MEAN_MOTION><ECCENTRICITY>.0002299</ECCENTRICITY><INCLINATION>87.8986</INCLINATION><RA_OF_ASC_NODE>215.6894</RA_OF_ASC_NODE><ARG_OF_PERICENTER>77.6168</ARG_OF_PERICENTER><MEAN_ANOMALY>282.5217</MEAN_ANOMALY></meanElements><tleParameters><EPHEMERIS_TYPE>0</EPHEMERIS_TYPE><CLASSIFICATION_TYPE>U</CLASSIFICATION_TYPE><NORAD_CAT_ID>45451</NORAD_CAT_ID><ELEMENT_SET_NO>999</ELEMENT_SET_NO><REV_AT_EPOCH>17417</REV_AT_EPOCH><BSTAR>.41984E-4</BSTAR><MEAN_MOTION_DOT>.28E-6</MEAN_MOTION_DOT><MEAN_MOTION_DDOT>0</MEAN_MOTION_DDOT></tleParameters></data></segment></body></omm>
<omm id="CCSDS_OMM_VERS" version="2.0">
<header><CREATION_DATE/><ORIGINATOR/></header><body><segment><metadata><OBJECT_NAME>ONEWEB-0082</OBJECT_NAME><OBJECT_ID>2020-020AE</OBJECT_ID><CENTER_NAME>EARTH</CENTER_NAME><REF_FRAME>TEME</REF_FRAME><TIME_SYSTEM>UTC</TIME_SYSTEM><MEAN_ELEMENT_THEORY>SGP4</MEAN_ELEMENT_THEORY></metadata><data><meanElements><EPOCH>2023-10-11T09:05:37.986432</EPOCH><MEAN_MOTION>13.11405706</MEAN_MOTION><ECCENTRICITY>.0001979</ECCENTRICITY><INCLINATION>87.8990</INCLINATION><RA_OF_ASC_NODE>215.6753</RA_OF_ASC_NODE><ARG_OF_PERICENTER>71.8968</ARG_OF_PERICENTER><MEAN_ANOMALY>288.2375</MEAN_ANOMALY></meanElements><tleParameters><EPHEMERIS_TYPE>0</EPHEMERIS_TYPE><CLASSIFICATION_TYPE>U</CLASSIFICATION_TYPE><NORAD_CAT_ID>45452</NORAD_CAT_ID><ELEMENT_SET_NO>999</ELEMENT_SET_NO><REV_AT_EPOCH>17426</REV_AT_EPOCH><BSTAR>-.13647E-2</BSTAR><MEAN_MOTION_DOT>-.471E-5</MEAN_MOTION_DOT><MEAN_MOTION_DDOT>0</MEAN_MOTION_DDOT></tleParameters></data></segment></body></omm>
<omm id="CCSDS_OMM_VERS" version="2.0">
<header><CREATION_DATE/><ORIGINATOR/></header><body><segment><metadata><OBJECT_NAME>ONEWEB-0050</OBJECT_NAME><OBJECT_ID>2020-020AF</OBJECT_ID><CENTER_NAME>EARTH</CENTER_NAME><REF_FRAME>TEME</REF_FRAME><TIME_SYSTEM>UTC</TIME_SYSTEM><MEAN_ELEMENT_THEORY>SGP4</MEAN_ELEMENT_THEORY></metadata><data><meanElements><EPOCH>2023-10-10T23:14:04.261632</EPOCH><MEAN_MOTION>14.99313394</MEAN_MOTION><ECCENTRICITY>.0022268</ECCENTRICITY><INCLINATION>87.9960</INCLINATION><RA_OF_ASC_NODE>92.0662</RA_OF_ASC_NODE><ARG_OF_PERICENTER>252.3780</ARG_OF_PERICENTER><MEAN_ANOMALY>107.5021</MEAN_ANOMALY></meanElements><tleParameters><EPHEMERIS_TYPE>0</EPHEMERIS_TYPE><CLASSIFICATION_TYPE>U</CLASSIFICATION_TYPE><NORAD_CAT_ID>45453</NORAD_CAT_ID><ELEMENT_SET_NO>999</ELEMENT_SET_NO><REV_AT_EPOCH>19425</REV_AT_EPOCH><BSTAR>.1278E-2</BSTAR><MEAN_MOTION_DOT>.15727E-3</MEAN_MOTION_DOT><MEAN_MOTION_DDOT>0</MEAN_MOTION_DDOT></tleParameters></data></segment></body></omm>
<omm id="CCSDS_OMM_VERS" version="2.0">
<header><CREATION_DATE/><ORIGINATOR/></header><body><segment><metadata><OBJECT_NAME>ONEWEB-0034</OBJECT_NAME><OBJECT_ID>2020-020AG</OBJECT_ID><CENTER_NAME>EARTH</CENTER_NAME><REF_FRAME>TEME</REF_FRAME><TIME_SYSTEM>UTC</TIME_SYSTEM><MEAN_ELEMENT_THEORY>SGP4</MEAN_ELEMENT_THEORY></metadata><data><meanElements><EPOCH>2023-10-10T20:44:36.861792</EPOCH><MEAN_MOTION>13.11419686</MEAN_MOTION><ECCENTRICITY>.0002014</ECCENTRICITY><INCLINATION>87.8987</INCLINATION><RA_OF_ASC_NODE>215.7952</RA_OF_ASC_NODE><ARG_OF_PERICENTER>77.0001</ARG_OF_PERICENTER><MEAN_ANOMALY>283.1352</MEAN_ANOMALY></meanElements><tleParameters><EPHEMERIS_TYPE>0</EPHEMERIS_TYPE><CLASSIFICATION_TYPE>U</CLASSIFICATION_TYPE><NORAD_CAT_ID>45454</NORAD_CAT_ID><ELEMENT_SET_NO>999</ELEMENT_SET_NO><REV_AT_EPOCH>17410</REV_AT_EPOCH><BSTAR>.1534E-3</BSTAR><MEAN_MOTION_DOT>.67E-6</MEAN_MOTION_DOT><MEAN_MOTION_DDOT>0</MEAN_MOTION_DDOT></tleParameters></data></segment></body></omm>
<omm id="CCSDS_OMM_VERS" version="2.0">
<header><CREATION_DATE/><ORIGINATOR/></header><body><segment><metadata><OBJECT_NAME>ONEWEB-0060</OBJECT_NAME><OBJECT_ID>2020-020AH</OBJECT_ID><CENTER_NAME>EARTH</CENTER_NAME><REF_FRAME>TEME</REF_FRAME><TIME_SYSTEM>UTC</TIME_SYSTEM><MEAN_ELEMENT_THEORY>SGP4</MEAN_ELEMENT_THEORY></metadata><data><meanElements><EPOCH>2023-10-10T20:56:17.774880</EPOCH><MEAN_MOTION>13.11417093</MEAN_MOTION><ECCENTRICITY>.0002076</ECCENTRICITY><INCLINATION>87.8984</INCLINATION><RA_OF_ASC_NODE>215.7935</RA_OF_ASC_NODE><ARG_OF_PERICENTER>80.0195</ARG_OF_PERICENTER><MEAN_ANOMALY>280.1167</MEAN_ANOMALY></meanElements><tleParameters><EPHEMERIS_TYPE>0</EPHEMERIS_TYPE><CLASSIFICATION_TYPE>U</CLASSIFICATION_TYPE><NORAD_CAT_ID>45455</NORAD_CAT_ID><ELEMENT_SET_NO>999</ELEMENT_SET_NO><REV_AT_EPOCH>17406</REV_AT_EPOCH><BSTAR>.10962E-2</BSTAR><MEAN_MOTION_DOT>.401E-5</MEAN_MOTION_DOT><MEAN_MOTION_DDOT>0</MEAN_MOTION_DDOT></tleParameters></data></segment></body></omm>

</ndm>
